OBJECT_NAME,OBJECT_ID,EPOCH,MEAN_MOTION,ECCENTRICITY,INCLINATION,RA_OF_ASC_NODE,ARG_OF_PERICENTER,MEAN_ANOMALY,EPHEMERIS_TYPE,CLASSIFICATION_TYPE,NORAD_CAT_ID,ELEMENT_SET_NO,REV_AT_EPOCH,BSTAR,MEAN_MOTION_DOT,MEAN_MOTION_DDOT
HAWK-5A,2022-057AB,2026-06-15T22:44:01.142880,15.51354575,.00056615,97.6601,325.7143,82.7122,277.4773,0,U,52757,999,22615,.26903635E-3,.15733E-3,0
HAWK-6B,2023-011A,2026-06-15T22:29:28.884768,15.22924458,.00025256,40.4997,359.3629,351.4672,8.6094,0,U,55324,999,18765,.19251519E-3,.4419E-4,0
HAWK-6C,2023-011C,2026-06-15T22:28:31.398528,15.22920976,.00034928,40.4991,356.2052,342.6269,17.4420,0,U,55326,999,18766,.16809969E-3,.3833E-4,0
HAWK-6A,2023-011D,2026-06-15T22:28:36.144480,15.22922068,.00031912,40.4997,357.8300,339.9740,20.0944,0,U,55327,999,18766,.18602049E-3,.4263E-4,0
HAWK-7A,2023-054P,2026-06-16T04:38:09.292704,15.27352306,.00044013,97.2704,54.5559,59.6781,300.4894,0,U,56191,999,17687,.17201481E-3,.4536E-4,0
HAWK-7B,2023-054R,2026-06-16T06:12:22.416192,15.27350839,.00037741,97.2730,52.8834,70.3407,289.8240,0,U,56193,999,17688,.17211772E-3,.4538E-4,0
HAWK-7C,2023-054Y,2026-06-16T06:12:12.900096,15.27352717,.00037513,97.2707,53.6523,62.1311,298.0309,0,U,56200,999,17688,.17199928E-3,.4535E-4,0
